1 43057U 17079C   19338.71788318 -.00000043  00000-0  00000+0 0  9997
2 43057  56.4243 287.1662 0004748 287.4307  72.5102  1.70473687 12307
1 43057U 17079C   19338.71788318 -.00000043  00000-0  00000-0 0  9998
2 43057  56.4243 287.1662 0004748 287.4307  72.5102  1.70473687 12307
1 43057U 17079C   19339.89105627 -.00000042  00000-0  00000+0 0  9992
2 43057  56.4234 287.1342 0004760 286.7061  73.2327  1.70473686 12323
1 43057U 17079C   19341.06423025 -.00000041  00000-0  00000+0 0  9998
2 43057  56.4224 287.1021 0004730 287.1403  72.7970  1.70473677 12348
1 43057U 17079C   19343.41058358 -.00000035  00000-0  00000+0 0  9995
2 43057  56.4205 287.0381 0004671 288.0598  71.8772  1.70473628 12384
1 43057U 17079C   19343.99717462 -.00000034  00000-0  00000-0 0  9996
2 43057  56.4202 287.0221 0004655 288.2600  71.6781  1.70473610 12392
1 43057U 17079C   19345.17035787 -.00000029  00000-0  00000+0 0  9994
2 43057  56.4188 286.9899 0004633 288.8803  71.0617  1.70473571 12412
1 43057U 17079C   19345.75695082 -.00000027  00000-0  00000-0 0  9997
2 43057  56.4183 286.9739 0004619 289.1375  70.8072  1.70473557 12429
1 43057U 17079C   19348.10332690 -.00000019  00000-0  00000+0 0  9992
2 43057  56.4162 286.9097 0004573 290.0758  69.8828  1.70473502 12469
1 43057U 17079C   19350.44969692 -.00000021  00000-0  00000+0 0  9993
2 43057  56.4141 286.8454 0004519 291.0758  68.8925  1.70473455 12502
1 43057U 17079C   19351.03628615 -.00000024  00000-0  00000-0 0  9990
2 43057  56.4137 286.8294 0004509 291.3001  68.6686  1.70473449 12518
1 43057U 17079C   19356.90214923 -.00000053  00000-0  00000+0 0  9995
2 43057  56.4088 286.6687 0004415 293.8760  66.0793  1.70473481 12610
1 43057U 17079C   19358.07533314 -.00000051  00000-0  00000+0 0  9991
2 43057  56.4078 286.6366 0004380 294.5560  65.4031  1.70473505 12637
1 43057U 17079C   19359.83511594 -.00000045  00000-0  00000+0 0  9995
2 43057  56.4058 286.5883 0004334 295.2067  64.7625  1.70473537 12666
1 43057U 17079C   19360.42171083 -.00000043  00000-0  00000-0 0  9996
2 43057  56.4053 286.5722 0004323 295.4339  64.5392  1.70473553 12673
1 43057U 17079C   19362.76808713 -.00000039  00000-0  00000+0 0  9996
2 43057  56.4033 286.5080 0004275 296.3282  63.6588  1.70473606 12712
1 43057U 17079C   19363.94127062 -.00000039  00000-0  00000+0 0  9998
2 43057  56.4020 286.4759 0004247 296.7537  63.2375  1.70473628 12732
1 43057U 17079C   20002.46080441 -.00000035  00000-0  00000+0 0  9992
2 43057  56.3991 286.3796 0004120 298.4663  61.5272  1.70473638 12791
1 43057U 17079C   20003.63397903 -.00000032  00000-0  00000+0 0  9993
2 43057  56.3984 286.3475 0004101 298.7597  61.2329  1.70473633 12813
1 43057U 17079C   20005.98033424 -.00000024  00000-0  00000+0 0  9999
2 43057  56.3965 286.2832 0004051 299.6553  60.3389  1.70473609 12857
1 43057U 17079C   20007.74010989 -.00000016  00000-0  00000+0 0  9997
2 43057  56.3950 286.2350 0004007 300.4690  59.5319  1.70473572 12885
1 43057U 17079C   20010.08648677 -.00000005  00000-0  00000+0 0  9997
2 43057  56.3922 286.1707 0003944 301.7409  58.2744  1.70473513 12928
1 43057U 17079C   20012.43285828 -.00000003  00000-0  00000+0 0  9991
2 43057  56.3899 286.1063 0003886 302.8179  57.2086  1.70473468 12968
1 43057U 17079C   20014.77920467 -.00000014  00000-0  00000+0 0  9997
2 43057  56.3870 286.0419 0003918 302.4557  57.5679  1.70473488 13002
1 43057U 17079C   20015.36579262 -.00000018  00000-0  00000-0 0  9991
2 43057  56.3873 286.0258 0003834 303.9784  56.0443  1.70473464 13019
1 43057U 17079C   20017.12554509 -.00000028  00000-0  00000+0 0  9994
2 43057  56.3863 285.9775 0003801 304.7417  55.2737  1.70473482 13046
1 43057U 17079C   20022.40485476 -.00000020  00000-0  00000-0 0  9990
2 43057  56.3823 285.8325 0003694 306.8476  53.1780  1.70473610 13138
1 43057U 17079C   20024.75122375 -.00000015  00000-0  00000+0 0  9999
2 43057  56.3789 285.7681 0003696 306.9965  53.0406  1.70473693 13178
1 43057U 17079C   20027.09758260 -.00000014  00000-0  00000+0 0  9996
2 43057  56.3767 285.7037 0003641 307.8677  52.1744  1.70473744 13216
1 43057U 17079C   20027.68417048 -.00000014  00000-0  00000-0 0  9998
2 43057  56.3760 285.6876 0003620 308.1320  51.9102  1.70473742 13229
1 43057U 17079C   20028.27075741 -.00000013  00000-0  00000+0 0  9992
2 43057  56.3773 285.6715 0003604 308.2795  51.7621  1.70473754 13232
1 43057U 17079C   20029.44393177 -.00000011  00000-0  00000+0 0  9996
2 43057  56.3764 285.6394 0003515 309.6720  50.3686  1.70473765 13259
1 43057U 17079C   20031.20368845 -.00000006  00000-0  00000+0 0  9991
2 43057  56.3750 285.5911 0003471 309.8234  50.2138  1.70473778 13289
1 43057U 17079C   20031.20368845 -.00000006  00000-0  00000-0 0  9992
2 43057  56.3750 285.5911 0003471 309.8234  50.2138  1.70473778 13289
1 43057U 17079C   20031.79027504 -.00000004  00000-0  00000-0 0  9998
2 43057  56.3745 285.5750 0003450 310.1453  49.8914  1.70473773 13291
1 43057U 17079C   20034.72321986  .00000009  00000-0  00000+0 0  9998
2 43057  56.3722 285.4943 0003347 312.0487  47.9918  1.70473728 13341
1 43057U 17079C   20034.72321986  .00000009  00000-0  00000-0 0  9999
2 43057  56.3722 285.4943 0003347 312.0487  47.9918  1.70473728 13341
1 43057U 17079C   20035.89640225  .00000016  00000-0  00000+0 0  9995
2 43057  56.3712 285.4620 0003326 312.4531  47.5921  1.70473711 13367
1 43057U 17079C   20041.76229415  .00000017  00000-0  00000+0 0  9993
2 43057  56.3663 285.3007 0003234 313.9990  46.0564  1.70473633 13464
1 43057U 17079C   20046.45495610 -.00000004  00000-0  00000+0 0  9993
2 43057  56.3626 285.1716 0003180 315.3626  44.6702  1.70473689 13548
1 43057U 17079C   20047.04153832 -.00000003  00000-0  00000-0 0  9996
2 43057  56.3623 285.1555 0003268 314.4071  45.6243  1.70473735 13551
1 43057U 17079C   20052.90744330  .00000009  00000-0  00000+0 0  9990
2 43057  56.3579 284.9941 0002996 317.6250  42.4246  1.70473878 13655
1 43057U 17079C   20054.08061569  .00000008  00000-0  00000+0 0  9996
2 43057  56.3568 284.9618 0002977 317.9623  42.0868  1.70473920 13676
1 43057U 17079C   20055.84037146  .00000008  00000-0  00000+0 0  9995
2 43057  56.3554 284.9135 0002892 318.7936  41.2517  1.70473929 13702
1 43057U 17079C   20056.42695469  .00000008  00000-0  00000-0 0  9999
2 43057  56.3549 284.8974 0002875 318.9261  41.1170  1.70473940 13718
1 43057U 17079C   20058.77328649  .00000014  00000-0  00000+0 0  9998
2 43057  56.3533 284.8330 0002833 318.7624  41.2716  1.70473977 13753
1 43057U 17079C   20061.11962696  .00000022  00000-0  00000+0 0  9995
2 43057  56.3517 284.7685 0002788 318.9896  41.0406  1.70473955 13793
1 43057U 17079C   20062.87939243  .00000030  00000-0  00000+0 0  9990
2 43057  56.3504 284.7201 0002744 319.4973  40.5356  1.70473906 13825
1 43057U 17079C   20064.05257147  .00000036  00000-0  00000+0 0  9994
2 43057  56.3497 284.6877 0002712 319.6161  40.4204  1.70473884 13848
1 43057U 17079C   20065.81233977  .00000041  00000-0  00000+0 0  9990
2 43057  56.3484 284.6394 0002670 319.8724  40.1689  1.70473846 13873
1 43057U 17079C   20066.39892755  .00000041  00000-0  00000-0 0  9990
2 43057  56.3479 284.6232 0002656 319.8631  40.1788  1.70473842 13886
1 43057U 17079C   20066.98551418  .00000040  00000-0  00000-0 0  9992
2 43057  56.3474 284.6071 0002637 319.9270  40.1149  1.70473832 13892
1 43057U 17079C   20068.15868299  .00000035  00000-0  00000+0 0  9994
2 43057  56.3467 284.5747 0002617 319.9221  40.1168  1.70473814 13911
1 43057U 17079C   20069.91842603  .00000023  00000-0  00000-0 0  9998
2 43057  56.3450 284.5264 0002579 320.3697  39.6589  1.70473834 13942
1 43057U 17079C   20071.09158481  .00000014  00000-0  00000+0 0  9993
2 43057  56.3440 284.4940 0002554 320.4384  39.5812  1.70473836 13960
1 43057U 17079C   20073.43790926  .00000004  00000-0  00000+0 0  9998
2 43057  56.3419 284.4294 0002512 320.7861  39.2195  1.70473867 14006
1 43057U 17079C   20074.02449344  .00000004  00000-0  00000-0 0  9990
2 43057  56.3412 284.4133 0002497 320.8507  39.1535  1.70473881 14015
1 43057U 17079C   20076.37084120  .00000009  00000-0  00000+0 0  9991
2 43057  56.3394 284.3488 0002494 320.6897  39.3156  1.70473950 14055
1 43057U 17079C   20076.95742910  .00000010  00000-0  00000-0 0  9996
2 43057  56.3400 284.3325 0002464 320.1366  39.8701  1.70474004 14069
1 43057U 17079C   20079.89036945  .00000010  00000-0  00000+0 0  9995
2 43057  56.3379 284.2519 0002417 319.5867  40.4247  1.70474075 14111
1 43057U 17079C   20083.99645231  .00000005  00000-0  00000+0 0  9999
2 43057  56.3355 284.1393 0002345 318.9711  41.0273  1.70474150 14182
1 43057U 17079C   20083.99645231  .00000005  00000-0  00000-0 0  9990
2 43057  56.3355 284.1393 0002345 318.9711  41.0273  1.70474150 14182
1 43057U 17079C   20085.75619774  .00000007  00000-0  00000-0 0  9991
2 43057  56.3339 284.0910 0002293 318.5099  41.4803  1.70474147 14218
1 43057U 17079C   20088.10253183  .00000014  00000-0  00000-0 0  9999
2 43057  56.3311 284.0268 0002222 318.3681  41.6162  1.70474137 14254
1 43057U 17079C   20091.62205688  .00000027  00000-0  00000-0 0  9991
2 43057  56.3278 283.9303 0002151 318.5192  41.4704  1.70474081 14319
1 43057U 17079C   20093.38182096  .00000030  00000-0  00000+0 0  9996
2 43057  56.3266 283.8820 0002143 317.7344  42.2585  1.70474053 14348
1 43057U 17079C   20093.96840671  .00000029  00000-0  00000-0 0  9999
2 43057  56.3263 283.8659 0002121 317.2015  42.7915  1.70474041 14351
1 43057U 17079C   20095.14157438  .00000024  00000-0  00000+0 0  9997
2 43057  56.3256 283.8336 0002103 316.3364  43.6543  1.70474026 14374
1 43057U 17079C   20096.31473722  .00000017  00000-0  00000+0 0  9996
2 43057  56.3252 283.8013 0002101 315.8272  44.1577  1.70474025 14396
1 43057U 17079C   20098.66105149 -.00000003  00000-0  00000+0 0  9997
2 43057  56.3252 283.7367 0002104 314.2264  45.7404  1.70474040 14432
